MEAN_MOTION;ECCENTRICITY;INCLINATION;RA_OF_ASC_NODE;ARG_OF_PERICENTER;MEAN_ANOMALY;BSTAR;MEAN_MOTION_DOT;MEAN_MOTION_DDOT;TYPE
12.50493785;0.006398;51.9619;167.2996;148.7887;211.6796;2.8153E-5;-9.6E-7;0;Globalstar
12.50493963;0.0063942;51.9618;164.2017;151.0493;209.3938;0.00012676;-8.1E-7;0;Globalstar
12.50494052;0.0063905;51.9618;161.3422;153.1316;207.2877;0.00015609;-7.6E-7;0;Globalstar
12.504941;0.0063885;51.9617;158.9592;154.8723;205.5268;0.00016537;-7.5E-7;0;Globalstar
12.50494102;0.0063883;51.9617;158.7209;155.0439;205.3533;0.00016811;-7.4E-7;0;Globalstar
12.50494114;0.006388;51.9617;158.4826;155.2166;205.1786;0.00017643;-7.3E-7;0;Globalstar
12.50494102;0.0063856;51.9616;155.8612;157.1399;203.2326;0.0001675;-7.5E-7;0;Globalstar
12.50494102;0.0063856;51.9616;155.8612;157.1399;203.2326;0.0001675;-7.5E-7;0;Globalstar
12.50494069;0.0063816;51.9615;152.7633;159.409;200.9362;0.00015818;-7.6E-7;0;Globalstar
12.50493901;0.0063786;51.9615;149.9038;161.4898;198.8303;3.2749E-5;-9.5E-7;0;Globalstar
12.50493857;0.0063772;51.9616;147.9974;162.8759;197.4272;5.8361E-6;-9.9E-7;0;Globalstar
12.50493828;0.0063764;51.9619;147.0441;163.5774;196.7172;-0.00011267;-1.18E-6;0;Globalstar
12.50493783;0.0063743;51.9619;144.1846;165.6619;194.6068;-0.00014005;-1.22E-6;0;Globalstar
12.50493705;0.0063719;51.9618;141.0866;167.9184;192.3221;-0.00017187;-1.27E-6;0;Globalstar
12.50493716;0.0063717;51.9618;140.61;168.2638;191.9725;-0.00015872;-1.25E-6;0;Globalstar
12.50493732;0.0063691;51.9617;137.0353;170.8608;189.3427;-9.6593E-5;-1.15E-6;0;Globalstar
12.5049373;0.0063687;51.9617;136.797;171.0349;189.1664;-9.3167E-5;-1.15E-6;0;Globalstar
12.50493889;0.0063662;51.9613;133.9376;173.108;187.067;1.0251E-5;-9.9E-7;0;Globalstar
12.50493923;0.0063656;51.9612;133.2227;173.6311;186.5372;4.4305E-5;-9.3E-7;0;Globalstar
12.50493974;0.0063646;51.9612;132.0311;174.4955;185.6618;8.0339E-5;-8.8E-7;0;Globalstar
12.50494012;0.0063636;51.9611;130.8396;175.368;184.7782;0.00010587;-8.4E-7;0;Globalstar
12.50494044;0.006363;51.9611;130.1246;175.8894;184.2501;0.00011689;-8.2E-7;0;Globalstar
12.50494081;0.0063621;51.961;129.1714;176.5811;183.5496;0.00014782;-7.7E-7;0;Globalstar
12.50494102;0.0063609;51.961;127.9798;177.4512;182.6684;0.00013947;-7.9E-7;0;Globalstar
12.50494194;0.0063592;51.961;126.3116;178.6672;181.4368;0.00018632;-7.1E-7;0;Globalstar
12.50494218;0.0063591;51.961;126.0733;178.8396;181.2623;0.0002002;-6.9E-7;0;Globalstar
12.50494249;0.0063578;51.961;124.8817;179.7116;180.3791;0.00020769;-6.8E-7;0;Globalstar
12.50494351;0.006356;51.9609;123.2135;180.9259;179.1493;0.00025494;-6.1E-7;0;Globalstar
12.50494408;0.0063548;51.9609;122.022;181.7978;178.2662;0.00028029;-5.7E-7;0;Globalstar
12.50494556;0.0063528;51.9609;120.1155;183.1895;176.8569;0.00031326;-5.2E-7;0;Globalstar
12.50494608;0.0063512;51.9609;118.9239;184.0632;175.972;0.00033318;-4.9E-7;0;Globalstar
12.50494694;0.0063492;51.9609;117.494;185.1073;174.9146;0.00035073;-4.6E-7;0;Globalstar
12.50494789;0.0063471;51.9609;115.1109;186.849;173.1509;0.00034214;-4.7E-7;0;Globalstar
12.50494858;0.0063441;51.9609;114.1577;187.5494;172.4416;0.00036897;-4.3E-7;0;Globalstar
12.50494924;0.0063399;51.961;111.5363;189.4689;170.498;0.00031661;-5.1E-7;0;Globalstar
12.50494953;0.0063365;51.961;109.1532;191.2122;168.733;0.00024616;-6.2E-7;0;Globalstar
12.50494949;0.0063325;51.961;108.2;191.9164;168.0201;0.00022891;-6.5E-7;0;Globalstar
12.50495016;0.006328;51.9611;105.3403;194.0093;165.9013;0.00018691;-7.1E-7;0;Globalstar
12.50495013;0.0063262;51.9611;103.9104;195.0564;164.8413;0.00014295;-7.8E-7;0;Globalstar
12.50494923;0.006324;51.9611;102.2422;196.275;163.608;1.4227E-5;-9.8E-7;0;Globalstar
12.50494923;0.006324;51.9611;102.2422;196.275;163.608;1.4227E-5;-9.8E-7;0;Globalstar
12.50494869;0.0063188;51.9613;97.2377;199.934;159.905;-0.00010998;-1.17E-6;0;Globalstar
12.50494837;0.0063179;51.9619;96.2845;200.6219;159.2089;-6.1852E-5;-1.1E-6;0;Globalstar
12.50494837;0.0063162;51.962;94.1397;202.1912;157.6211;-6.2422E-5;-1.1E-6;0;Globalstar
12.50494877;0.006316;51.9615;92.2331;203.5965;156.1994;-0.0001042;-1.16E-6;0;Globalstar
12.50494858;0.0063142;51.9615;90.5649;204.8172;154.9648;-0.00011055;-1.17E-6;0;Globalstar
12.50494869;0.0063143;51.9622;89.1353;205.8665;153.9034;-7.703E-5;-1.12E-6;0;Globalstar
12.50494869;0.0063112;51.9617;87.4668;207.0841;152.6721;-7.361E-5;-1.11E-6;0;Globalstar
12.50494867;0.0063095;51.9618;86.037;208.1301;151.6144;-4.9134E-5;-1.08E-6;0;Globalstar
12.50494931;0.0063064;51.962;83.1772;210.2193;149.5024;3.9245E-5;-9.4E-7;0;Globalstar
12.50494919;0.0063059;51.9621;82.4623;210.7397;148.9763;2.7493E-5;-9.6E-7;0;Globalstar
12.50494994;0.0063031;51.9623;80.0793;212.4822;147.2152;7.6958E-5;-8.8E-7;0;Globalstar
12.50495117;0.0063019;51.9624;78.6495;213.5225;146.164;0.00016992;-7.4E-7;0;Globalstar
12.50495197;0.0062998;51.9626;76.0281;215.4321;144.2346;0.00019499;-7.0E-7;0;Globalstar
12.50495327;0.0062941;51.9631;71.2623;218.9098;140.7224;0.0001537;-7.6E-7;0;Globalstar
12.50495247;0.0062898;51.9633;68.1643;221.162;138.4487;2.2379E-5;-9.6E-7;0;Globalstar
12.50495222;0.0062881;51.9634;66.9729;222.0317;137.5709;-7.9146E-6;-1.01E-6;0;Globalstar
12.50495086;0.0062855;51.9635;64.5899;223.7652;135.8217;-0.00015333;-1.24E-6;0;Globalstar
12.50494834;0.0062835;51.9639;62.2073;225.5039;134.0675;-0.00023565;-1.36E-6;0;Globalstar
12.5049466;0.0062825;51.964;61.0159;226.3756;133.1883;-0.00034039;-1.52E-6;0;Globalstar
12.50494612;0.0062811;51.9641;59.5861;227.4196;132.1354;-0.00035159;-1.54E-6;0;Globalstar
12.50494451;0.0062789;51.9643;56.4883;229.6851;129.8512;-0.00041754;-1.64E-6;0;Globalstar
12.50494445;0.0062791;51.9643;56.2501;229.8596;129.6753;-0.00041644;-1.64E-6;0;Globalstar
12.50494397;0.0062785;51.9644;55.0586;230.7443;128.7836;-0.00041517;-1.64E-6;0;Globalstar
12.50494296;0.0062774;51.9645;52.6758;232.4864;127.028;-0.00039362;-1.61E-6;0;Globalstar
12.5049426;0.0062772;51.9645;52.1992;232.8402;126.6715;-0.00038632;-1.59E-6;0;Globalstar
12.5049418;0.0062759;51.9647;49.5781;234.759;124.7387;-0.00035393;-1.54E-6;0;Globalstar
12.50494175;0.0062758;51.9647;49.3398;234.935;124.5614;-0.00034968;-1.54E-6;0;Globalstar
12.50494088;0.0062734;51.9649;46.242;237.2063;122.2744;-0.0002985;-1.46E-6;0;Globalstar
12.50494017;0.0062729;51.965;44.3357;238.6007;120.8708;-0.0002796;-1.43E-6;0;Globalstar
12.5049406;0.0062722;51.9651;41.4763;240.7025;118.7558;-0.00017063;-1.26E-6;0;Globalstar
12.50494086;0.0062707;51.9652;40.7615;241.2242;118.231;-0.00012417;-1.19E-6;0;Globalstar
12.50494112;0.0062698;51.9652;38.3785;242.9656;116.4796;-6.1889E-5;-1.09E-6;0;Globalstar
12.50494135;0.0062677;51.9651;37.4254;243.6633;115.7782;-2.0648E-5;-1.03E-6;0;Globalstar
12.50494137;0.006267;51.9652;35.5192;245.0576;114.3764;-2.9583E-5;-1.04E-6;0;Globalstar
12.50494163;0.0062657;51.9652;32.6598;247.1538;112.2698;-2.0241E-5;-1.03E-6;0;Globalstar
12.50494159;0.0062655;51.9652;32.4216;247.3281;112.0946;-1.9343E-5;-1.03E-6;0;Globalstar
12.50494187;0.0062645;51.9652;29.5622;249.4237;109.9895;3.8483E-6;-9.9E-7;0;Globalstar
12.50494199;0.0062636;51.9652;26.4645;251.695;107.709;2.3951E-5;-9.6E-7;0;Globalstar
12.50494245;0.0062633;51.9652;25.7497;252.2178;107.1842;6.6268E-5;-9.0E-7;0;Globalstar
12.50494248;0.0062631;51.9652;25.5114;252.3918;107.0095;6.3706E-5;-9.0E-7;0;Globalstar
12.50494267;0.0062624;51.9652;23.6052;253.7861;105.6103;7.7289E-5;-8.8E-7;0;Globalstar
12.50494306;0.0062615;51.9652;22.652;254.4815;104.9126;0.00011882;-8.1E-7;0;Globalstar
12.50494318;0.0062609;51.9652;20.7457;255.8759;103.5138;0.00012311;-8.1E-7;0;Globalstar
12.50494354;0.0062603;51.9652;19.7926;256.5774;102.8103;0.0001578;-7.5E-7;0;Globalstar
12.50494399;0.0062597;51.9652;17.6481;258.1476;101.2359;0.00017301;-7.3E-7;0;Globalstar
12.50494408;0.0062586;51.9652;14.7887;260.2406;99.1383;0.00015716;-7.6E-7;0;Globalstar
12.50494357;0.0062584;51.9652;14.0738;260.7684;98.6095;0.00011974;-8.1E-7;0;Globalstar
12.50494349;0.0062573;51.9652;11.691;262.5103;96.8645;8.7922E-5;-8.6E-7;0;Globalstar
12.50494326;0.0062574;51.9652;10.9762;263.0385;96.3356;6.593E-5;-9.0E-7;0;Globalstar
12.50494312;0.0062569;51.9652;8.8316;264.6063;94.7657;2.2473E-5;-9.6E-7;0;Globalstar
12.50494288;0.0062582;51.9652;7.8783;265.3088;94.0624;-1.6349E-5;-1.02E-6;0;Globalstar
12.50494277;0.0062579;51.9651;5.0188;267.4089;91.9607;-1.5446E-5;-1.02E-6;0;Globalstar
12.50494316;0.0062578;51.9651;2.1593;269.5017;89.8673;1.7172E-5;-9.7E-7;0;Globalstar
12.50494327;0.0062566;51.9648;359.7768;271.2491;88.1203;2.3281E-5;-9.6E-7;0;Globalstar
12.50494422;0.0062553;51.9647;359.0619;271.7607;87.609;9.9289E-5;-8.4E-7;0;Globalstar
12.50494509;0.0062551;51.9646;356.679;273.5074;85.8634;0.00017042;-7.3E-7;0;Globalstar
12.50494637;0.0062539;51.9646;355.7258;274.1923;85.1793;0.00024014;-6.3E-7;0;Globalstar
12.50494693;0.0062533;51.9645;353.8194;275.58;83.7932;0.00026892;-5.8E-7;0;Globalstar
12.50494773;0.0062524;51.9644;351.1982;277.493;81.8831;0.0002694;-5.8E-7;0;Globalstar
12.50494773;0.0062523;51.9644;350.9599;277.6641;81.7123;0.00027068;-5.8E-7;0;Globalstar
12.50494901;0.0062515;51.9643;347.8619;279.9248;79.456;0.00030061;-5.3E-7;0;Globalstar
12.50494905;0.0062507;51.9642;347.3854;280.2662;79.1155;0.0002877;-5.5E-7;0;Globalstar
12.50494904;0.0062498;51.9642;345.0023;281.9981;77.3879;0.00022359;-6.5E-7;0;Globalstar
12.50494891;0.0062501;51.9642;344.2875;282.529;76.8585;0.00020441;-6.8E-7;0;Globalstar
12.50494884;0.0062494;51.9641;341.9045;284.2615;75.1311;0.00016182;-7.5E-7;0;Globalstar
12.50494692;0.0062482;51.9641;339.0449;286.3427;73.057;-4.7011E-5;-1.07E-6;0;Globalstar
12.50494704;0.0062505;51.9644;338.8066;286.51;72.89;-2.1819E-5;-1.03E-6;0;Globalstar
12.5049455;0.0062505;51.9643;335.947;288.6016;70.8063;-0.00014651;-1.22E-6;0;Globalstar
12.5049454;0.0062505;51.9642;335.4704;288.9513;70.4581;-0.00015355;-1.24E-6;0;Globalstar
12.50494469;0.0062504;51.9642;333.0874;290.6903;68.7265;-0.00017727;-1.27E-6;0;Globalstar
12.50494471;0.0062505;51.9641;331.181;292.0851;67.3381;-0.00018324;-1.28E-6;0;Globalstar
